CCSDS_OMM_VERS = 2.0
CREATION_DATE  = 
ORIGINATOR     = 

OBJECT_NAME    = STARLINK-36796
OBJECT_ID      = 2026-026B
CENTER_NAME    = EARTH
REF_FRAME      = TEME
TIME_SYSTEM    = UTC
MEAN_ELEMENT_THEORY = SGP/SGP4

EPOCH          = 2026-02-25T14:00:03.000384
MEAN_MOTION    = 15.80705374
ECCENTRICITY   = .0001108
INCLINATION    = 97.2827
RA_OF_ASC_NODE = 110.6096
ARG_OF_PERICENTER = 72.1935
MEAN_ANOMALY   = 219.4726

EPHEMERIS_TYPE = 0
CLASSIFICATION_TYPE = U
NORAD_CAT_ID   = 67722
ELEMENT_SET_NO = 999
REV_AT_EPOCH   = 336
BSTAR          = .12602744E-2
MEAN_MOTION_DOT = .246972E-2
MEAN_MOTION_DDOT = 0

CCSDS_OMM_VERS = 2.0
CREATION_DATE  = 
ORIGINATOR     = 

OBJECT_NAME    = STARLINK-36369
OBJECT_ID      = 2026-026C
CENTER_NAME    = EARTH
REF_FRAME      = TEME
TIME_SYSTEM    = UTC
MEAN_ELEMENT_THEORY = SGP/SGP4

EPOCH          = 2026-02-25T14:00:03.000384
MEAN_MOTION    = 15.80708758
ECCENTRICITY   = .0001407
INCLINATION    = 97.2830
RA_OF_ASC_NODE = 110.6126
ARG_OF_PERICENTER = 82.0041
MEAN_ANOMALY   = 215.5123

EPHEMERIS_TYPE = 0
CLASSIFICATION_TYPE = U
NORAD_CAT_ID   = 67723
ELEMENT_SET_NO = 999
REV_AT_EPOCH   = 336
BSTAR          = .66667206E-3
MEAN_MOTION_DOT = .128828E-2
MEAN_MOTION_DDOT = 0

CCSDS_OMM_VERS = 2.0
CREATION_DATE  = 
ORIGINATOR     = 

OBJECT_NAME    = STARLINK-36752
OBJECT_ID      = 2026-026D
CENTER_NAME    = EARTH
REF_FRAME      = TEME
TIME_SYSTEM    = UTC
MEAN_ELEMENT_THEORY = SGP/SGP4

EPOCH          = 2026-02-25T14:00:03.000384
MEAN_MOTION    = 15.80795532
ECCENTRICITY   = .00015107
INCLINATION    = 97.2800
RA_OF_ASC_NODE = 110.6161
ARG_OF_PERICENTER = 90.4114
MEAN_ANOMALY   = 214.6942

EPHEMERIS_TYPE = 0
CLASSIFICATION_TYPE = U
NORAD_CAT_ID   = 67724
ELEMENT_SET_NO = 999
REV_AT_EPOCH   = 336
BSTAR          = -.25145044E-4
MEAN_MOTION_DOT = -.4951E-4
MEAN_MOTION_DDOT = 0

CCSDS_OMM_VERS = 2.0
CREATION_DATE  = 
ORIGINATOR     = 

OBJECT_NAME    = STARLINK-36754
OBJECT_ID      = 2026-026E
CENTER_NAME    = EARTH
REF_FRAME      = TEME
TIME_SYSTEM    = UTC
MEAN_ELEMENT_THEORY = SGP/SGP4

EPOCH          = 2026-02-25T14:00:03.000384
MEAN_MOTION    = 15.80745068
ECCENTRICITY   = .00015274
INCLINATION    = 97.2805
RA_OF_ASC_NODE = 110.6181
ARG_OF_PERICENTER = 117.9563
MEAN_ANOMALY   = 193.1763

EPHEMERIS_TYPE = 0
CLASSIFICATION_TYPE = U
NORAD_CAT_ID   = 67725
ELEMENT_SET_NO = 999
REV_AT_EPOCH   = 336
BSTAR          = .10426923E-2
MEAN_MOTION_DOT = .203655E-2
MEAN_MOTION_DDOT = 0

CCSDS_OMM_VERS = 2.0
CREATION_DATE  = 
ORIGINATOR     = 

OBJECT_NAME    = STARLINK-36755
OBJECT_ID      = 2026-026F
CENTER_NAME    = EARTH
REF_FRAME      = TEME
TIME_SYSTEM    = UTC
MEAN_ELEMENT_THEORY = SGP/SGP4

EPOCH          = 2026-02-25T14:00:03.000384
MEAN_MOTION    = 15.80753991
ECCENTRICITY   = .00013537
INCLINATION    = 97.2799
RA_OF_ASC_NODE = 110.6203
ARG_OF_PERICENTER = 95.7417
MEAN_ANOMALY   = 223.0525

EPHEMERIS_TYPE = 0
CLASSIFICATION_TYPE = U
NORAD_CAT_ID   = 67726
ELEMENT_SET_NO = 999
REV_AT_EPOCH   = 336
BSTAR          = .56584392E-3
MEAN_MOTION_DOT = .109301E-2
MEAN_MOTION_DDOT = 0

CCSDS_OMM_VERS = 2.0
CREATION_DATE  = 
ORIGINATOR     = 

OBJECT_NAME    = STARLINK-36741
OBJECT_ID      = 2026-026G
CENTER_NAME    = EARTH
REF_FRAME      = TEME
TIME_SYSTEM    = UTC
MEAN_ELEMENT_THEORY = SGP/SGP4

EPOCH          = 2026-02-25T14:00:03.000384
MEAN_MOTION    = 15.80750740
ECCENTRICITY   = .0001548
INCLINATION    = 97.2794
RA_OF_ASC_NODE = 110.6221
ARG_OF_PERICENTER = 102.8352
MEAN_ANOMALY   = 220.9044

EPHEMERIS_TYPE = 0
CLASSIFICATION_TYPE = U
NORAD_CAT_ID   = 67727
ELEMENT_SET_NO = 999
REV_AT_EPOCH   = 336
BSTAR          = .77843517E-3
MEAN_MOTION_DOT = .151126E-2
MEAN_MOTION_DDOT = 0

CCSDS_OMM_VERS = 2.0
CREATION_DATE  = 
ORIGINATOR     = 

OBJECT_NAME    = STARLINK-36757
OBJECT_ID      = 2026-026H
CENTER_NAME    = EARTH
REF_FRAME      = TEME
TIME_SYSTEM    = UTC
MEAN_ELEMENT_THEORY = SGP/SGP4

EPOCH          = 2026-02-25T14:00:03.000384
MEAN_MOTION    = 15.80735949
ECCENTRICITY   = .00010929
INCLINATION    = 97.2797
RA_OF_ASC_NODE = 110.6239
ARG_OF_PERICENTER = 103.4652
MEAN_ANOMALY   = 227.1878

EPHEMERIS_TYPE = 0
CLASSIFICATION_TYPE = U
NORAD_CAT_ID   = 67728
ELEMENT_SET_NO = 999
REV_AT_EPOCH   = 336
BSTAR          = .67428844E-3
MEAN_MOTION_DOT = .130486E-2
MEAN_MOTION_DDOT = 0

CCSDS_OMM_VERS = 2.0
CREATION_DATE  = 
ORIGINATOR     = 

OBJECT_NAME    = STARLINK-36751
OBJECT_ID      = 2026-026J
CENTER_NAME    = EARTH
REF_FRAME      = TEME
TIME_SYSTEM    = UTC
MEAN_ELEMENT_THEORY = SGP/SGP4

EPOCH          = 2026-02-25T14:00:03.000384
MEAN_MOTION    = 15.80777043
ECCENTRICITY   = .00009474
INCLINATION    = 97.2793
RA_OF_ASC_NODE = 110.6296
ARG_OF_PERICENTER = 95.5243
MEAN_ANOMALY   = 249.2041

EPHEMERIS_TYPE = 0
CLASSIFICATION_TYPE = U
NORAD_CAT_ID   = 67729
ELEMENT_SET_NO = 999
REV_AT_EPOCH   = 336
BSTAR          = .36645617E-3
MEAN_MOTION_DOT = .70494E-3
MEAN_MOTION_DDOT = 0

CCSDS_OMM_VERS = 2.0
CREATION_DATE  = 
ORIGINATOR     = 

OBJECT_NAME    = STARLINK-36747
OBJECT_ID      = 2026-026K
CENTER_NAME    = EARTH
REF_FRAME      = TEME
TIME_SYSTEM    = UTC
MEAN_ELEMENT_THEORY = SGP/SGP4

EPOCH          = 2026-02-25T14:00:03.000384
MEAN_MOTION    = 15.80753358
ECCENTRICITY   = .0001166
INCLINATION    = 97.2794
RA_OF_ASC_NODE = 110.6273
ARG_OF_PERICENTER = 95.5124
MEAN_ANOMALY   = 240.6697

EPHEMERIS_TYPE = 0
CLASSIFICATION_TYPE = U
NORAD_CAT_ID   = 67730
ELEMENT_SET_NO = 999
REV_AT_EPOCH   = 336
BSTAR          = .871277E-3
MEAN_MOTION_DOT = .169545E-2
MEAN_MOTION_DDOT = 0

CCSDS_OMM_VERS = 2.0
CREATION_DATE  = 
ORIGINATOR     = 

OBJECT_NAME    = STARLINK-36315
OBJECT_ID      = 2026-026L
CENTER_NAME    = EARTH
REF_FRAME      = TEME
TIME_SYSTEM    = UTC
MEAN_ELEMENT_THEORY = SGP/SGP4

EPOCH          = 2026-02-25T14:00:03.000384
MEAN_MOTION    = 15.80692811
ECCENTRICITY   = .00014393
INCLINATION    = 97.2792
RA_OF_ASC_NODE = 110.6327
ARG_OF_PERICENTER = 100.4399
MEAN_ANOMALY   = 249.8075

EPHEMERIS_TYPE = 0
CLASSIFICATION_TYPE = U
NORAD_CAT_ID   = 67731
ELEMENT_SET_NO = 999
REV_AT_EPOCH   = 336
BSTAR          = .12858834E-2
MEAN_MOTION_DOT = .251996E-2
MEAN_MOTION_DDOT = 0

CCSDS_OMM_VERS = 2.0
CREATION_DATE  = 
ORIGINATOR     = 

OBJECT_NAME    = STARLINK-36260
OBJECT_ID      = 2026-026M
CENTER_NAME    = EARTH
REF_FRAME      = TEME
TIME_SYSTEM    = UTC
MEAN_ELEMENT_THEORY = SGP/SGP4

EPOCH          = 2026-02-25T14:00:03.000384
MEAN_MOTION    = 15.80738390
ECCENTRICITY   = .00013027
INCLINATION    = 97.2788
RA_OF_ASC_NODE = 110.6353
ARG_OF_PERICENTER = 79.6791
MEAN_ANOMALY   = 277.2786

EPHEMERIS_TYPE = 0
CLASSIFICATION_TYPE = U
NORAD_CAT_ID   = 67732
ELEMENT_SET_NO = 999
REV_AT_EPOCH   = 336
BSTAR          = .86942614E-3
MEAN_MOTION_DOT = .16906E-2
MEAN_MOTION_DDOT = 0

CCSDS_OMM_VERS = 2.0
CREATION_DATE  = 
ORIGINATOR     = 

OBJECT_NAME    = STARLINK-36746
OBJECT_ID      = 2026-026N
CENTER_NAME    = EARTH
REF_FRAME      = TEME
TIME_SYSTEM    = UTC
MEAN_ELEMENT_THEORY = SGP/SGP4

EPOCH          = 2026-02-25T14:00:03.000384
MEAN_MOTION    = 15.79598705
ECCENTRICITY   = .00011266
INCLINATION    = 97.2735
RA_OF_ASC_NODE = 110.6358
ARG_OF_PERICENTER = 88.5930
MEAN_ANOMALY   = 272.3181

EPHEMERIS_TYPE = 0
CLASSIFICATION_TYPE = U
NORAD_CAT_ID   = 67733
ELEMENT_SET_NO = 999
REV_AT_EPOCH   = 336
BSTAR          = -.11865305E-1
MEAN_MOTION_DOT = -.1880832E-1
MEAN_MOTION_DDOT = 0

