STARLINK-36796          
1 67722U 26026B   26056.58336806  .00246972  00000+0  12603-2 0  9991
2 67722  97.2827 110.6096 0001108  72.1935 219.4726 15.80705374  3364
STARLINK-36369          
1 67723U 26026C   26056.58336806  .00128828  00000+0  66667-3 0  9991
2 67723  97.2830 110.6126 0001407  82.0041 215.5123 15.80708758  3360
STARLINK-36752          
1 67724U 26026D   26056.58336806 -.00004951  00000+0 -25145-4 0  9991
2 67724  97.2800 110.6161 0001510  90.4114 214.6942 15.80795532  3361
STARLINK-36754          
1 67725U 26026E   26056.58336806  .00203655  00000+0  10427-2 0  9997
2 67725  97.2805 110.6181 0001527 117.9563 193.1763 15.80745068  3361
STARLINK-36755          
1 67726U 26026F   26056.58336806  .00109301  00000+0  56584-3 0  9996
2 67726  97.2799 110.6203 0001353  95.7417 223.0525 15.80753991  3360
STARLINK-36741          
1 67727U 26026G   26056.58336806  .00151126  00000+0  77844-3 0  9991
2 67727  97.2794 110.6221 0001548 102.8352 220.9044 15.80750740  3361
STARLINK-36757          
1 67728U 26026H   26056.58336806  .00130486  00000+0  67429-3 0  9996
2 67728  97.2797 110.6239 0001092 103.4652 227.1878 15.80735949  3366
STARLINK-36751          
1 67729U 26026J   26056.58336806  .00070494  00000+0  36646-3 0  9996
2 67729  97.2793 110.6296 0000947  95.5243 249.2041 15.80777043  3369
STARLINK-36747          
1 67730U 26026K   26056.58336806  .00169545  00000+0  87128-3 0  9995
2 67730  97.2794 110.6273 0001166  95.5124 240.6697 15.80753358  3364
STARLINK-36315          
1 67731U 26026L   26056.58336806  .00251996  00000+0  12859-2 0  9996
2 67731  97.2792 110.6327 0001439 100.4399 249.8075 15.80692811  3363
STARLINK-36260          
1 67732U 26026M   26056.58336806  .00169060  00000+0  86943-3 0  9993
2 67732  97.2788 110.6353 0001302  79.6791 277.2786 15.80738390  3367
STARLINK-36746          
1 67733U 26026N   26056.58336806 -.01880832  00000+0 -11865-1 0  9993
2 67733  97.2735 110.6358 0001126  88.5930 272.3181 15.79598705  3360
